CCSDS_OMM_VERS = 2.0
CREATION_DATE  = 
ORIGINATOR     = 

OBJECT_NAME    = CZ-4B R/B
OBJECT_ID      = 2025-300B
CENTER_NAME    = EARTH
REF_FRAME      = TEME
TIME_SYSTEM    = UTC
MEAN_ELEMENT_THEORY = SGP/SGP4

EPOCH          = 2025-12-31T20:11:18.136032
MEAN_MOTION    = 15.67589119
ECCENTRICITY   = .01626808
INCLINATION    = 97.5610
RA_OF_ASC_NODE = 81.0876
ARG_OF_PERICENTER = 319.8916
MEAN_ANOMALY   = 39.0424

EPHEMERIS_TYPE = 0
CLASSIFICATION_TYPE = U
NORAD_CAT_ID   = 67132
ELEMENT_SET_NO = 999
REV_AT_EPOCH   = 246
BSTAR          = .24194627E-3
MEAN_MOTION_DOT = .55316E-3
MEAN_MOTION_DDOT = .317617E-5

CCSDS_OMM_VERS = 2.0
CREATION_DATE  = 
ORIGINATOR     = 

OBJECT_NAME    = KUIPER-00144
OBJECT_ID      = 2025-301A
CENTER_NAME    = EARTH
REF_FRAME      = TEME
TIME_SYSTEM    = UTC
MEAN_ELEMENT_THEORY = SGP/SGP4

EPOCH          = 2026-01-01T16:28:57.379008
MEAN_MOTION    = 15.35712003
ECCENTRICITY   = .0006403
INCLINATION    = 51.8704
RA_OF_ASC_NODE = 28.9415
ARG_OF_PERICENTER = 138.5994
MEAN_ANOMALY   = 221.5478

EPHEMERIS_TYPE = 0
CLASSIFICATION_TYPE = U
NORAD_CAT_ID   = 67133
ELEMENT_SET_NO = 999
REV_AT_EPOCH   = 343
BSTAR          = .81841E-3
MEAN_MOTION_DOT = .28602E-3
MEAN_MOTION_DDOT = 0

CCSDS_OMM_VERS = 2.0
CREATION_DATE  = 
ORIGINATOR     = 

OBJECT_NAME    = KUIPER-00164
OBJECT_ID      = 2025-301B
CENTER_NAME    = EARTH
REF_FRAME      = TEME
TIME_SYSTEM    = UTC
MEAN_ELEMENT_THEORY = SGP/SGP4

EPOCH          = 2026-01-01T14:44:31.289856
MEAN_MOTION    = 15.36354413
ECCENTRICITY   = .0003232
INCLINATION    = 51.8727
RA_OF_ASC_NODE = 29.2064
ARG_OF_PERICENTER = 121.0220
MEAN_ANOMALY   = 239.1084

EPHEMERIS_TYPE = 0
CLASSIFICATION_TYPE = U
NORAD_CAT_ID   = 67134
ELEMENT_SET_NO = 999
REV_AT_EPOCH   = 360
BSTAR          = .15118E-2
MEAN_MOTION_DOT = .54439E-3
MEAN_MOTION_DDOT = 0

CCSDS_OMM_VERS = 2.0
CREATION_DATE  = 
ORIGINATOR     = 

OBJECT_NAME    = KUIPER-00175
OBJECT_ID      = 2025-301C
CENTER_NAME    = EARTH
REF_FRAME      = TEME
TIME_SYSTEM    = UTC
MEAN_ELEMENT_THEORY = SGP/SGP4

EPOCH          = 2026-01-01T16:10:46.253280
MEAN_MOTION    = 15.36876701
ECCENTRICITY   = .0002657
INCLINATION    = 51.8745
RA_OF_ASC_NODE = 28.8548
ARG_OF_PERICENTER = 71.5379
MEAN_ANOMALY   = 288.5896

EPHEMERIS_TYPE = 0
CLASSIFICATION_TYPE = U
NORAD_CAT_ID   = 67135
ELEMENT_SET_NO = 999
REV_AT_EPOCH   = 350
BSTAR          = .15265E-2
MEAN_MOTION_DOT = .55917E-3
MEAN_MOTION_DDOT = 0

CCSDS_OMM_VERS = 2.0
CREATION_DATE  = 
ORIGINATOR     = 

OBJECT_NAME    = KUIPER-00179
OBJECT_ID      = 2025-301D
CENTER_NAME    = EARTH
REF_FRAME      = TEME
TIME_SYSTEM    = UTC
MEAN_ELEMENT_THEORY = SGP/SGP4

EPOCH          = 2026-01-01T16:15:50.320800
MEAN_MOTION    = 15.36455665
ECCENTRICITY   = .0003315
INCLINATION    = 51.8741
RA_OF_ASC_NODE = 28.8796
ARG_OF_PERICENTER = 100.6052
MEAN_ANOMALY   = 259.5308

EPHEMERIS_TYPE = 0
CLASSIFICATION_TYPE = U
NORAD_CAT_ID   = 67136
ELEMENT_SET_NO = 999
REV_AT_EPOCH   = 361
BSTAR          = .16394E-2
MEAN_MOTION_DOT = .593E-3
MEAN_MOTION_DDOT = 0

CCSDS_OMM_VERS = 2.0
CREATION_DATE  = 
ORIGINATOR     = 

OBJECT_NAME    = KUIPER-00181
OBJECT_ID      = 2025-301E
CENTER_NAME    = EARTH
REF_FRAME      = TEME
TIME_SYSTEM    = UTC
MEAN_ELEMENT_THEORY = SGP/SGP4

EPOCH          = 2026-01-01T18:18:49.908960
MEAN_MOTION    = 15.34657222
ECCENTRICITY   = .0010458
INCLINATION    = 51.8639
RA_OF_ASC_NODE = 28.6969
ARG_OF_PERICENTER = 164.3119
MEAN_ANOMALY   = 195.8192

EPHEMERIS_TYPE = 0
CLASSIFICATION_TYPE = U
NORAD_CAT_ID   = 67137
ELEMENT_SET_NO = 999
REV_AT_EPOCH   = 360
BSTAR          = .13863E-2
MEAN_MOTION_DOT = .47261E-3
MEAN_MOTION_DDOT = 0

CCSDS_OMM_VERS = 2.0
CREATION_DATE  = 
ORIGINATOR     = 

OBJECT_NAME    = KUIPER-00183
OBJECT_ID      = 2025-301F
CENTER_NAME    = EARTH
REF_FRAME      = TEME
TIME_SYSTEM    = UTC
MEAN_ELEMENT_THEORY = SGP/SGP4

EPOCH          = 2026-01-01T18:23:42.713376
MEAN_MOTION    = 15.34422514
ECCENTRICITY   = .0011119
INCLINATION    = 51.8615
RA_OF_ASC_NODE = 28.7160
ARG_OF_PERICENTER = 167.0157
MEAN_ANOMALY   = 193.1116

EPHEMERIS_TYPE = 0
CLASSIFICATION_TYPE = U
NORAD_CAT_ID   = 67138
ELEMENT_SET_NO = 999
REV_AT_EPOCH   = 361
BSTAR          = .20944E-2
MEAN_MOTION_DOT = .71302E-3
MEAN_MOTION_DDOT = 0

CCSDS_OMM_VERS = 2.0
CREATION_DATE  = 
ORIGINATOR     = 

OBJECT_NAME    = KUIPER-00184
OBJECT_ID      = 2025-301G
CENTER_NAME    = EARTH
REF_FRAME      = TEME
TIME_SYSTEM    = UTC
MEAN_ELEMENT_THEORY = SGP/SGP4

EPOCH          = 2026-01-01T18:17:39.075648
MEAN_MOTION    = 15.34732243
ECCENTRICITY   = .0009289
INCLINATION    = 51.8628
RA_OF_ASC_NODE = 28.6898
ARG_OF_PERICENTER = 163.1917
MEAN_ANOMALY   = 196.9378

EPHEMERIS_TYPE = 0
CLASSIFICATION_TYPE = U
NORAD_CAT_ID   = 67139
ELEMENT_SET_NO = 999
REV_AT_EPOCH   = 372
BSTAR          = .14606E-2
MEAN_MOTION_DOT = .49936E-3
MEAN_MOTION_DDOT = 0

CCSDS_OMM_VERS = 2.0
CREATION_DATE  = 
ORIGINATOR     = 

OBJECT_NAME    = KUIPER-00186
OBJECT_ID      = 2025-301H
CENTER_NAME    = EARTH
REF_FRAME      = TEME
TIME_SYSTEM    = UTC
MEAN_ELEMENT_THEORY = SGP/SGP4

EPOCH          = 2026-01-01T13:27:38.401632
MEAN_MOTION    = 15.35380254
ECCENTRICITY   = .0007787
INCLINATION    = 51.8685
RA_OF_ASC_NODE = 29.5957
ARG_OF_PERICENTER = 147.8743
MEAN_ANOMALY   = 212.2719

EPHEMERIS_TYPE = 0
CLASSIFICATION_TYPE = U
NORAD_CAT_ID   = 67140
ELEMENT_SET_NO = 999
REV_AT_EPOCH   = 341
BSTAR          = .14239E-2
MEAN_MOTION_DOT = .49671E-3
MEAN_MOTION_DDOT = 0

CCSDS_OMM_VERS = 2.0
CREATION_DATE  = 
ORIGINATOR     = 

OBJECT_NAME    = KUIPER-00187
OBJECT_ID      = 2025-301J
CENTER_NAME    = EARTH
REF_FRAME      = TEME
TIME_SYSTEM    = UTC
MEAN_ELEMENT_THEORY = SGP/SGP4

EPOCH          = 2026-01-01T16:22:52.408128
MEAN_MOTION    = 15.36076013
ECCENTRICITY   = .0004433
INCLINATION    = 51.8713
RA_OF_ASC_NODE = 28.9145
ARG_OF_PERICENTER = 127.2256
MEAN_ANOMALY   = 232.9135

EPHEMERIS_TYPE = 0
CLASSIFICATION_TYPE = U
NORAD_CAT_ID   = 67141
ELEMENT_SET_NO = 999
REV_AT_EPOCH   = 343
BSTAR          = .56549E-3
MEAN_MOTION_DOT = .19849E-3
MEAN_MOTION_DDOT = 0

CCSDS_OMM_VERS = 2.0
CREATION_DATE  = 
ORIGINATOR     = 

OBJECT_NAME    = KUIPER-00188
OBJECT_ID      = 2025-301K
CENTER_NAME    = EARTH
REF_FRAME      = TEME
TIME_SYSTEM    = UTC
MEAN_ELEMENT_THEORY = SGP/SGP4

EPOCH          = 2026-01-01T15:02:48.856704
MEAN_MOTION    = 15.35315518
ECCENTRICITY   = .0007797
INCLINATION    = 51.8693
RA_OF_ASC_NODE = 29.2883
ARG_OF_PERICENTER = 154.6154
MEAN_ANOMALY   = 205.5216

EPHEMERIS_TYPE = 0
CLASSIFICATION_TYPE = U
NORAD_CAT_ID   = 67142
ELEMENT_SET_NO = 999
REV_AT_EPOCH   = 342
BSTAR          = .13045E-2
MEAN_MOTION_DOT = .45353E-3
MEAN_MOTION_DDOT = 0

CCSDS_OMM_VERS = 2.0
CREATION_DATE  = 
ORIGINATOR     = 

OBJECT_NAME    = KUIPER-00191
OBJECT_ID      = 2025-301L
CENTER_NAME    = EARTH
REF_FRAME      = TEME
TIME_SYSTEM    = UTC
MEAN_ELEMENT_THEORY = SGP/SGP4

EPOCH          = 2026-01-01T14:59:32.251776
MEAN_MOTION    = 15.35449035
ECCENTRICITY   = .0006778
INCLINATION    = 51.8673
RA_OF_ASC_NODE = 29.2732
ARG_OF_PERICENTER = 147.1779
MEAN_ANOMALY   = 212.9629

EPHEMERIS_TYPE = 0
CLASSIFICATION_TYPE = U
NORAD_CAT_ID   = 67143
ELEMENT_SET_NO = 999
REV_AT_EPOCH   = 345
BSTAR          = .19007E-2
MEAN_MOTION_DOT = .66714E-3
MEAN_MOTION_DDOT = 0

